{
  "norad_id": 47274,
  "name": "ONEWEB-0128",
  "history": [
    {
      "epoch": "2026-03-28T19:53:55.797792Z",
      "apogee_km": 1215.2622654435045,
      "perigee_km": 1212.168281967879,
      "latitude_deg": 5.604447265708667e-05,
      "longitude_deg": -118.08144067570245,
      "height_km": 1216.4989419532785,
      "semi_major_axis_km": 7591.852273705692,
      "eccentricity": 0.00020377,
      "inclination_deg": 87.9005,
      "raan_deg": 6.645,
      "arg_perigee_deg": 86.1571,
      "mean_anomaly_deg": 273.9791,
      "mean_motion_rev_day": 13.12445079
    },
    {
      "epoch": "2026-03-29T05:02:50.083296Z",
      "apogee_km": 1215.2608101558108,
      "perigee_km": 1212.163335734048,
      "latitude_deg": 2.2875983622487335e-05,
      "longitude_deg": 104.2409565979716,
      "height_km": 1216.50224061811,
      "semi_major_axis_km": 7591.849072944929,
      "eccentricity": 0.000204,
      "inclination_deg": 87.9005,
      "raan_deg": 6.5693,
      "arg_perigee_deg": 86.4023,
      "mean_anomaly_deg": 273.7339,
      "mean_motion_rev_day": 13.12445909
    },
    {
      "epoch": "2026-03-30T01:10:25.684032Z",
      "apogee_km": 1215.2600593534007,
      "perigee_km": 1212.165621358472,
      "latitude_deg": 5.678206446056634e-05,
      "longitude_deg": 161.34975361821924,
      "height_km": 1216.492525126519,
      "semi_major_axis_km": 7591.849840355936,
      "eccentricity": 0.0002038,
      "inclination_deg": 87.9005,
      "raan_deg": 6.403,
      "arg_perigee_deg": 86.0098,
      "mean_anomaly_deg": 274.1264,
      "mean_motion_rev_day": 13.1244571
    },
    {
      "epoch": "2026-03-30T04:49:59.346048Z",
      "apogee_km": 1215.2647437846263,
      "perigee_km": 1212.1561859216663,
      "latitude_deg": 4.85537199641895e-05,
      "longitude_deg": 106.27901090692738,
      "height_km": 1216.4913757654274,
      "semi_major_axis_km": 7591.8474648531455,
      "eccentricity": 0.00020473,
      "inclination_deg": 87.9005,
      "raan_deg": 6.3728,
      "arg_perigee_deg": 86.0738,
      "mean_anomaly_deg": 274.0625,
      "mean_motion_rev_day": 13.12446326
    }
  ]
}